{"type": "FeatureCollection", "features": [ {"type": "Feature", "properties": {"norad_id": 30546, "name": "FENGYUN 1C DEB", "group": "fengyun-1c-debris", "lat": 41.76916395079898, "lon": 38.06446705423742, "alt_km": 538.5519009598675, "timestamp": "2025-12-19T04:59:48.583249+00:00", "meta": {"OBJECT_NAME": "FENGYUN 1C DEB", "OBJECT_ID": "1999-025AKL", "EPOCH": "2025-12-18T14:05:58.469856", "MEAN_MOTION": 14.87241762, "ECCENTRICITY": 0.0092739, "INCLINATION": 98.9084, "RA_OF_ASC_NODE": 209.3155, "ARG_OF_PERICENTER": 143.8079, "MEAN_ANOMALY": 272.3897, "EPHEMERIS_TYPE": 0, "CLASSIFICATION_TYPE": "U", "NORAD_CAT_ID": 30546, "ELEMENT_SET_NO": 999, "REV_AT_EPOCH": 544, "BSTAR": 0.00057045782, "MEAN_MOTION_DOT": 5.49e-05, "MEAN_MOTION_DDOT": 0}, "tle": {"line1": "1 30546U 99025AKL 25352.58748229  .00005490  00000+0  57046-3 0  9997", "line2": "2 30546  98.9084 209.3155 0092739 143.8079 272.3897 14.87241762  5448"}}, "geometry": {"type": "Point", "coordinates": [38.06446705423742, 41.76916395079898]}}, {"type": "Feature", "properties": {"norad_id": 30547, "name": "FENGYUN 1C DEB", "group": "fengyun-1c-debris", "lat": 38.71296496629334, "lon": 23.653311213938984, "alt_km": 726.0129681827693, "timestamp": "2025-12-19T04:59:48.583261+00:00", "meta": {"OBJECT_NAME": "FENGYUN 1C DEB", "OBJECT_ID": "1999-025AKM", "EPOCH": "2025-12-17T20:41:10.726080", "MEAN_MOTION": 14.37759449, "ECCENTRICITY": 0.00953541, "INCLINATION": 98.9019, "RA_OF_ASC_NODE": 195.0427, "ARG_OF_PERICENTER": 202.2326, "MEAN_ANOMALY": 175.0775, "EPHEMERIS_TYPE": 0, "CLASSIFICATION_TYPE": "U", "NORAD_CAT_ID": 30547, "ELEMENT_SET_NO": 999, "REV_AT_EPOCH": 98796, "BSTAR": 0.00022527959, "MEAN_MOTION_DOT": 6.65e-06, "MEAN_MOTION_DDOT": 0}, "tle": {"line1": "1 30547U 99025AKM 25351.86192970  .00000665  00000+0  22528-3 0  9990", "line2": "2 30547  98.9019 195.0427 0095354 202.2326 175.0775 14.37759449987962"}}, "geometry": {"type": "Point", "coordinates": [23.653311213938984, 38.71296496629334]}}, {"type": "Feature", "properties": {"norad_id": 30548, "name": "FENGYUN 1C DEB", "group": "fengyun-1c-debris", "lat": 34.245209636629134, "lon": 78.02970859404884, "alt_km": 848.246592410499, "timestamp": "2025-12-19T04:59:48.583271+00:00", "meta": {"OBJECT_NAME": "FENGYUN 1C DEB", "OBJECT_ID": "1999-025AKN", "EPOCH": "2025-12-18T13:43:46.180992", "MEAN_MOTION": 14.26933796, "ECCENTRICITY": 0.00682123, "INCLINATION": 99.6825, "RA_OF_ASC_NODE": 250.6522, "ARG_OF_PERICENTER": 319.3295, "MEAN_ANOMALY": 159.8427, "EPHEMERIS_TYPE": 0, "CLASSIFICATION_TYPE": "U", "NORAD_CAT_ID": 30548, "ELEMENT_SET_NO": 999, "REV_AT_EPOCH": 14178, "BSTAR": 0.0015026573, "MEAN_MOTION_DOT": 3.691e-05, "MEAN_MOTION_DDOT": 0}, "tle": {"line1": "1 30548U 99025AKN 25352.57206228  .00003691  00000+0  15027-2 0  9999", "line2": "2 30548  99.6825 250.6522 0068212 319.3295 159.8427 14.26933796141781"}}, "geometry": {"type": "Point", "coordinates": [78.02970859404884, 34.245209636629134]}}, {"type": "Feature", "properties": {"norad_id": 30549, "name": "FENGYUN 1C DEB", "group": "fengyun-1c-debris", "lat": 39.434481587283415, "lon": 106.1307627381728, "alt_km": 1092.5566001622828, "timestamp": "2025-12-19T04:59:48.583281+00:00", "meta": {"OBJECT_NAME": "FENGYUN 1C DEB", "OBJECT_ID": "1999-025AKP", "EPOCH": "2025-12-17T13:18:42.414912", "MEAN_MOTION": 13.9874791, "ECCENTRICITY": 0.02883708, "INCLINATION": 98.4837, "RA_OF_ASC_NODE": 111.6485, "ARG_OF_PERICENTER": 243.8352, "MEAN_ANOMALY": 113.2894, "EPHEMERIS_TYPE": 0, "CLASSIFICATION_TYPE": "U", "NORAD_CAT_ID": 30549, "ELEMENT_SET_NO": 999, "REV_AT_EPOCH": 95361, "BSTAR": 0.0019185983, "MEAN_MOTION_DOT": 3.901e-05, "MEAN_MOTION_DDOT": 0}, "tle": {"line1": "1 30549U 99025AKP 25351.55465758  .00003901  00000+0  19186-2 0  9996", "line2": "2 30549  98.4837 111.6485 0288370 243.8352 113.2894 13.98747910953614"}}, "geometry": {"type": "Point", "coordinates": [106.1307627381728, 39.434481587283415]}}, {"type": "Feature", "properties": {"norad_id": 30550, "name": "FENGYUN 1C DEB", "group": "fengyun-1c-debris", "lat": -72.94727731833822, "lon": -80.21793332448904, "alt_km": 797.0184574940176, "timestamp": "2025-12-19T04:59:48.583291+00:00", "meta": {"OBJECT_NAME": "FENGYUN 1C DEB", "OBJECT_ID": "1999-025AKQ", "EPOCH": "2025-12-18T04:24:58.972896", "MEAN_MOTION": 14.02439158, "ECCENTRICITY": 0.01320693, "INCLINATION": 99.0533, "RA_OF_ASC_NODE": 247.4464, "ARG_OF_PERICENTER": 282.3946, "MEAN_ANOMALY": 233.9531, "EPHEMERIS_TYPE": 0, "CLASSIFICATION_TYPE": "U", "NORAD_CAT_ID": 30550, "ELEMENT_SET_NO": 999, "REV_AT_EPOCH": 95471, "BSTAR": 0.0020497292, "MEAN_MOTION_DOT": 3.357e-05, "MEAN_MOTION_DDOT": 0}, "tle": {"line1": "1 30550U 99025AKQ 25352.18401589  .00003357  00000+0  20497-2 0  9992", "line2": "2 30550  99.0533 247.4464 0132069 282.3946 233.9531 14.02439158954719"}}, "geometry": {"type": "Point", "coordinates": [-80.21793332448904, -72.94727731833822]}}, {"type": "Feature", "properties": {"norad_id": 30552, "name": "FENGYUN 1C DEB", "group": "fengyun-1c-debris", "lat": 70.58884554846085, "lon": 99.05089174380996, "alt_km": 712.8361768280256, "timestamp": "2025-12-19T04:59:48.583301+00:00", "meta": {"OBJECT_NAME": "FENGYUN 1C DEB", "OBJECT_ID": "1999-025AKS", "EPOCH": "2025-12-17T08:05:53.746368", "MEAN_MOTION": 14.5488294, "ECCENTRICITY": 0.00150487, "INCLINATION": 98.8337, "RA_OF_ASC_NODE": 123.2639, "ARG_OF_PERICENTER": 239.0844, "MEAN_ANOMALY": 120.8873, "EPHEMERIS_TYPE": 0, "CLASSIFICATION_TYPE": "U", "NORAD_CAT_ID": 30552, "ELEMENT_SET_NO": 999, "REV_AT_EPOCH": 97719, "BSTAR": 0.0022919743, "MEAN_MOTION_DOT": 9.822e-05, "MEAN_MOTION_DDOT": 0}, "tle": {"line1": "1 30552U 99025AKS 25351.33742762  .00009822  00000+0  22920-2 0  9997", "line2": "2 30552  98.8337 123.2639 0015048 239.0844 120.8873 14.54882940977196"}}, "geometry": {"type": "Point", "coordinates": [99.05089174380996, 70.58884554846085]}}, {"type": "Feature", "properties": {"norad_id": 30553, "name": "FENGYUN 1C DEB", "group": "fengyun-1c-debris", "lat": 1.9223821604498859, "lon": -90.79998890206114, "alt_km": 645.8286915448498, "timestamp": "2025-12-19T04:59:48.583311+00:00", "meta": {"OBJECT_NAME": "FENGYUN 1C DEB", "OBJECT_ID": "1999-025AKT", "EPOCH": "2025-12-18T05:21:40.666176", "MEAN_MOTION": 14.72491686, "ECCENTRICITY": 0.00201451, "INCLINATION": 99.1303, "RA_OF_ASC_NODE": 87.7855, "ARG_OF_PERICENTER": 135.2229, "MEAN_ANOMALY": 225.0605, "EPHEMERIS_TYPE": 0, "CLASSIFICATION_TYPE": "U", "NORAD_CAT_ID": 30553, "ELEMENT_SET_NO": 999, "REV_AT_EPOCH": 98554, "BSTAR": 0.0028778878, "MEAN_MOTION_DOT": 0.00018312, "MEAN_MOTION_DDOT": 0}, "tle": {"line1": "1 30553U 99025AKT 25352.22338734  .00018312  00000+0  28779-2 0  9999", "line2": "2 30553  99.1303  87.7855 0020145 135.2229 225.0605 14.72491686985548"}}, "geometry": {"type": "Point", "coordinates": [-90.79998890206114, 1.9223821604498859]}}, {"type": "Feature", "properties": {"norad_id": 30555, "name": "FENGYUN 1C DEB", "group": "fengyun-1c-debris", "lat": -24.188518319639343, "lon": -137.29354321170084, "alt_km": 807.3687520634858, "timestamp": "2025-12-19T04:59:48.583321+00:00", "meta": {"OBJECT_NAME": "FENGYUN 1C DEB", "OBJECT_ID": "1999-025AKV", "EPOCH": "2025-12-18T16:45:53.855136", "MEAN_MOTION": 14.20838593, "ECCENTRICITY": 0.00428952, "INCLINATION": 98.7573, "RA_OF_ASC_NODE": 46.1717, "ARG_OF_PERICENTER": 254.1862, "MEAN_ANOMALY": 225.1005, "EPHEMERIS_TYPE": 0, "CLASSIFICATION_TYPE": "U", "NORAD_CAT_ID": 30555, "ELEMENT_SET_NO": 999, "REV_AT_EPOCH": 97020, "BSTAR": 0.0010457164, "MEAN_MOTION_DOT": 2.237e-05, "MEAN_MOTION_DDOT": 0}, "tle": {"line1": "1 30555U 99025AKV 25352.69853999  .00002237  00000+0  10457-2 0  9990", "line2": "2 30555  98.7573  46.1717 0042895 254.1862 225.1005 14.20838593970207"}}, "geometry": {"type": "Point", "coordinates": [-137.29354321170084, -24.188518319639343]}}, {"type": "Feature", "properties": {"norad_id": 30556, "name": "FENGYUN 1C DEB", "group": "fengyun-1c-debris", "lat": -75.82423775890888, "lon": 128.4906932630797, "alt_km": 857.8878229743505, "timestamp": "2025-12-19T04:59:48.583331+00:00", "meta": {"OBJECT_NAME": "FENGYUN 1C DEB", "OBJECT_ID": "1999-025AKW", "EPOCH": "2025-12-18T22:53:43.048608", "MEAN_MOTION": 14.01371334, "ECCENTRICITY": 0.00684018, "INCLINATION": 98.7809, "RA_OF_ASC_NODE": 345.9744, "ARG_OF_PERICENTER": 219.944, "MEAN_ANOMALY": 196.4959, "EPHEMERIS_TYPE": 0, "CLASSIFICATION_TYPE": "U", "NORAD_CAT_ID": 30556, "ELEMENT_SET_NO": 999, "REV_AT_EPOCH": 96344, "BSTAR": 0.00014187981, "MEAN_MOTION_DOT": 1.76e-06, "MEAN_MOTION_DDOT": 0}, "tle": {"line1": "1 30556U 99025AKW 25352.95397047  .00000176  00000+0  14188-3 0  9993", "line2": "2 30556  98.7809 345.9744 0068401 219.9440 196.4959 14.01371334963442"}}, "geometry": {"type": "Point", "coordinates": [128.4906932630797, -75.82423775890888]}}, {"type": "Feature", "properties": {"norad_id": 30557, "name": "FENGYUN 1C DEB", "group": "fengyun-1c-debris", "lat": -61.30285701580984, "lon": -138.35251125845795, "alt_km": 819.8692668939657, "timestamp": "2025-12-19T04:59:48.583342+00:00", "meta": {"OBJECT_NAME": "FENGYUN 1C DEB", "OBJECT_ID": "1999-025AKX", "EPOCH": "2025-12-18T15:56:08.236608", "MEAN_MOTION": 14.10826072, "ECCENTRICITY": 0.00685003, "INCLINATION": 98.9204, "RA_OF_ASC_NODE": 57.7803, "ARG_OF_PERICENTER": 215.9716, "MEAN_ANOMALY": 143.6834, "EPHEMERIS_TYPE": 0, "CLASSIFICATION_TYPE": "U", "NORAD_CAT_ID": 30557, "ELEMENT_SET_NO": 999, "REV_AT_EPOCH": 96384, "BSTAR": 0.0010093946, "MEAN_MOTION_DOT": 1.804e-05, "MEAN_MOTION_DDOT": 0}, "tle": {"line1": "1 30557U 99025AKX 25352.66398422  .00001804  00000+0  10094-2 0  9990", "line2": "2 30557  98.9204  57.7803 0068500 215.9716 143.6834 14.10826072963844"}}, "geometry": {"type": "Point", "coordinates": [-138.35251125845795, -61.30285701580984]}}]}